{
  "type": "FeatureCollection",
  "features": [
    {
      "type": "Feature",
      "properties": {
        "norad_id": 66998,
        "name": "2025-292F",
        "group": "last-30-days",
        "lat": -32.910996851398394,
        "lon": 68.17113444707273,
        "alt_km": 553.5917592159967,
        "timestamp": "2025-12-16T15:45:49.735163+00:00",
        "meta_object_name": "2025-292F",
        "meta_object_id": "2025-292F",
        "meta_epoch": "2025-12-15T22:21:25.432704",
        "meta_mean_motion": 15.04861044,
        "meta_eccentricity": 0.00144748,
        "meta_inclination": 97.6571,
        "meta_ra_of_asc_node": 62.457,
        "meta_arg_of_pericenter": 265.9841,
        "meta_mean_anomaly": 93.9731,
        "meta_ephemeris_type": 0,
        "meta_classification_type": "U",
        "meta_norad_cat_id": 66998,
        "meta_element_set_no": 999,
        "meta_rev_at_epoch": 87,
        "meta_bstar": 0.0003033774,
        "meta_mean_motion_dot": 4.236e-05,
        "meta_mean_motion_ddot": 0,
        "tle_line1": "1 66998U 25292F   25349.93154436  .00004236  00000+0  30338-3 0  9990",
        "tle_line2": "2 66998  97.6571  62.4570 0014474 265.9841  93.9731 15.04861044   874"
      },
      "geometry": {
        "type": "Point",
        "coordinates": [
          68.17113444707273,
          -32.910996851398394
        ]
      }
    },
    {
      "type": "Feature",
      "properties": {
        "norad_id": 66999,
        "name": "2025-292G",
        "group": "last-30-days",
        "lat": -31.464517652931683,
        "lon": 67.90017638662457,
        "alt_km": 553.3588472886076,
        "timestamp": "2025-12-16T15:45:49.735173+00:00",
        "meta_object_name": "2025-292G",
        "meta_object_id": "2025-292G",
        "meta_epoch": "2025-12-15T22:21:04.665600",
        "meta_mean_motion": 15.0492453,
        "meta_eccentricity": 0.00139839,
        "meta_inclination": 97.658,
        "meta_ra_of_asc_node": 62.4578,
        "meta_arg_of_pericenter": 268.1438,
        "meta_mean_anomaly": 91.8187,
        "meta_ephemeris_type": 0,
        "meta_classification_type": "U",
        "meta_norad_cat_id": 66999,
        "meta_element_set_no": 999,
        "meta_rev_at_epoch": 87,
        "meta_bstar": 0.00029836975,
        "meta_mean_motion_dot": 4.172e-05,
        "meta_mean_motion_ddot": 0,
        "tle_line1": "1 66999U 25292G   25349.93130400  .00004172  00000+0  29837-3 0  9997",
        "tle_line2": "2 66999  97.6580  62.4578 0013983 268.1438  91.8187 15.04924530   876"
      },
      "geometry": {
        "type": "Point",
        "coordinates": [
          67.90017638662457,
          -31.464517652931683
        ]
      }
    },
    {
      "type": "Feature",
      "properties": {
        "norad_id": 67000,
        "name": "2025-292H",
        "group": "last-30-days",
        "lat": -31.463064381528937,
        "lon": 67.90184123714066,
        "alt_km": 553.4361103249194,
        "timestamp": "2025-12-16T15:45:49.735185+00:00",
        "meta_object_name": "2025-292H",
        "meta_object_id": "2025-292H",
        "meta_epoch": "2025-12-15T22:21:04.642272",
        "meta_mean_motion": 15.04925329,
        "meta_eccentricity": 0.0013999,
        "meta_inclination": 97.6593,
        "meta_ra_of_asc_node": 62.4588,
        "meta_arg_of_pericenter": 267.6261,
        "meta_mean_anomaly": 92.3362,
        "meta_ephemeris_type": 0,
        "meta_classification_type": "U",
        "meta_norad_cat_id": 67000,
        "meta_element_set_no": 999,
        "meta_rev_at_epoch": 74,
        "meta_bstar": 0.00019079719,
        "meta_mean_motion_dot": 2.644e-05,
        "meta_mean_motion_ddot": 0,
        "tle_line1": "1 67000U 25292H   25349.93130373  .00002644  00000+0  19080-3 0  9991",
        "tle_line2": "2 67000  97.6593  62.4588 0013999 267.6261  92.3362 15.04925329   744"
      },
      "geometry": {
        "type": "Point",
        "coordinates": [
          67.90184123714066,
          -31.463064381528937
        ]
      }
    },
    {
      "type": "Feature",
      "properties": {
        "norad_id": 67001,
        "name": "2025-292J",
        "group": "last-30-days",
        "lat": -44.878483502230495,
        "lon": 70.86953931631085,
        "alt_km": 555.4102281284413,
        "timestamp": "2025-12-16T15:45:49.735195+00:00",
        "meta_object_name": "2025-292J",
        "meta_object_id": "2025-292J",
        "meta_epoch": "2025-12-15T22:24:17.919936",
        "meta_mean_motion": 15.04339228,
        "meta_eccentricity": 0.00142002,
        "meta_inclination": 97.657,
        "meta_ra_of_asc_node": 62.4544,
        "meta_arg_of_pericenter": 256.7169,
        "meta_mean_anomaly": 103.2473,
        "meta_ephemeris_type": 0,
        "meta_classification_type": "U",
        "meta_norad_cat_id": 67001,
        "meta_element_set_no": 999,
        "meta_rev_at_epoch": 87,
        "meta_bstar": 0.00031042517,
        "meta_mean_motion_dot": 4.275e-05,
        "meta_mean_motion_ddot": 0,
        "tle_line1": "1 67001U 25292J   25349.93354074  .00004275  00000+0  31043-3 0  9993",
        "tle_line2": "2 67001  97.6570  62.4544 0014200 256.7169 103.2473 15.04339228   870"
      },
      "geometry": {
        "type": "Point",
        "coordinates": [
          70.86953931631085,
          -44.878483502230495
        ]
      }
    },
    {
      "type": "Feature",
      "properties": {
        "norad_id": 67002,
        "name": "ZK-1A R/B",
        "group": "last-30-days",
        "lat": 48.98852158248847,
        "lon": 54.7723863109852,
        "alt_km": 315.7011025039801,
        "timestamp": "2025-12-16T15:45:49.735209+00:00",
        "meta_object_name": "ZK-1A R/B",
        "meta_object_id": "2025-292K",
        "meta_epoch": "2025-12-15T22:34:43.179456",
        "meta_mean_motion": 15.55630139,
        "meta_eccentricity": 0.02164276,
        "meta_inclination": 97.7243,
        "meta_ra_of_asc_node": 62.9775,
        "meta_arg_of_pericenter": 354.2409,
        "meta_mean_anomaly": 5.6358,
        "meta_ephemeris_type": 0,
        "meta_classification_type": "U",
        "meta_norad_cat_id": 67002,
        "meta_element_set_no": 999,
        "meta_rev_at_epoch": 89,
        "meta_bstar": 0.00072690324,
        "meta_mean_motion_dot": 0.00149163,
        "meta_mean_motion_ddot": 7.964828e-06,
        "tle_line1": "1 67002U 25292K   25349.94077754  .00149163  79648-5  72690-3 0  9991",
        "tle_line2": "2 67002  97.7243  62.9775 0216427 354.2409   5.6358 15.55630139   896"
      },
      "geometry": {
        "type": "Point",
        "coordinates": [
          54.7723863109852,
          48.98852158248847
        ]
      }
    },
    {
      "type": "Feature",
      "properties": {
        "norad_id": 67059,
        "name": "HULIANWANG DIGUI 16A",
        "group": "last-30-days",
        "lat": 24.466906555920154,
        "lon": 153.24007306839158,
        "alt_km": 806.7437258820737,
        "timestamp": "2025-12-16T15:45:49.735220+00:00",
        "meta_object_name": "HULIANWANG DIGUI 16A",
        "meta_object_id": "2025-295A",
        "meta_epoch": "2025-12-12T05:06:27.347328",
        "meta_mean_motion": 14.25879966,
        "meta_eccentricity": 0.00136284,
        "meta_inclination": 50.0035,
        "meta_ra_of_asc_node": 14.4753,
        "meta_arg_of_pericenter": 247.7813,
        "meta_mean_anomaly": 112.1656,
        "meta_ephemeris_type": 0,
        "meta_classification_type": "U",
        "meta_norad_cat_id": 67059,
        "meta_element_set_no": 999,
        "meta_rev_at_epoch": 4,
        "meta_bstar": 3.434713e-06,
        "meta_mean_motion_dot": -1.52e-06,
        "meta_mean_motion_ddot": 0,
        "tle_line1": "1 67059U 25295A   25346.21281652 -.00000152  00000+0  34347-5 0  9991",
        "tle_line2": "2 67059  50.0035  14.4753 0013628 247.7813 112.1656 14.25879966    41"
      },
      "geometry": {
        "type": "Point",
        "coordinates": [
          153.24007306839158,
          24.466906555920154
        ]
      }
    },
    {
      "type": "Feature",
      "properties": {
        "norad_id": 67060,
        "name": "HULIANWANG DIGUI 16B",
        "group": "last-30-days",
        "lat": 22.757336329829638,
        "lon": 155.07338855945684,
        "alt_km": 805.6223852433523,
        "timestamp": "2025-12-16T15:45:49.735232+00:00",
        "meta_object_name": "HULIANWANG DIGUI 16B",
        "meta_object_id": "2025-295B",
        "meta_epoch": "2025-12-12T05:06:25.468992",
        "meta_mean_motion": 14.26022254,
        "meta_eccentricity": 0.0013423,
        "meta_inclination": 50.0012,
        "meta_ra_of_asc_node": 14.4776,
        "meta_arg_of_pericenter": 244.6732,
        "meta_mean_anomaly": 115.2792,
        "meta_ephemeris_type": 0,
        "meta_classification_type": "U",
        "meta_norad_cat_id": 67060,
        "meta_element_set_no": 999,
        "meta_rev_at_epoch": 4,
        "meta_bstar": 4.398892e-06,
        "meta_mean_motion_dot": -1.5e-06,
        "meta_mean_motion_ddot": 0,
        "tle_line1": "1 67060U 25295B   25346.21279478 -.00000150  00000+0  43989-5 0  9996",
        "tle_line2": "2 67060  50.0012  14.4776 0013423 244.6732 115.2792 14.26022254    48"
      },
      "geometry": {
        "type": "Point",
        "coordinates": [
          155.07338855945684,
          22.757336329829638
        ]
      }
    }
  ]
}